ISS (ZARYA)             
1 25544U 98067A   25326.28671477  .00015903  00000+0  29634-3 0  9994
2 25544  51.6321 243.7129 0003927 154.7163 205.4019 15.48986583539685
ISS (NAUKA)             
1 49044U 21066A   25326.28671477  .00015903  00000+0  29634-3 0  9990
2 49044  51.6321 243.7129 0003927 154.7163 205.4019 15.48986583230448
FREGAT DEB              
1 49271U 11037PF  25326.00490823  .00008756  00000+0  19138-1 0  9997
2 49271  51.6176 260.7532 0874614 179.0797 181.1911 12.34191491199372
CSS (WENTIAN)           
1 53239U 22085A   25326.53118296  .00018605  00000+0  23182-3 0  9990
2 53239  41.4655 139.2979 0007783 217.8550 142.1741 15.59440627173848
CSS (MENGTIAN)          
1 54216U 22143A   25326.53118296  .00018605  00000+0  23182-3 0  9991
2 54216  41.4655 139.2979 0007783 217.8550 142.1741 15.59440627158645
SOYUZ-MS 27             
1 63520U 25072A   25326.28671477  .00015903  00000+0  29634-3 0  9996
2 63520  51.6321 243.7129 0003927 154.7163 205.4019 15.48986583 20204
SHENZHOU-20 (SZ-20)     
1 63632U 25082A   25326.53118296  .00018605  00000+0  23182-3 0  9998
2 63632  41.4655 139.2979 0007783 217.8550 142.1741 15.59440627255308
PROGRESS-MS 31          
1 64751U 25146A   25326.28671477  .00015903  00000+0  29634-3 0  9995
2 64751  51.6321 243.7129 0003927 154.7163 205.4019 15.48986583  6755
TIANZHOU-9              
1 64786U 25149A   25326.53118296  .00018605  00000+0  23182-3 0  9993
2 64786  41.4655 139.2979 0007783 217.8550 142.1741 15.59440627255309
CREW DRAGON 11          
1 65077U 25166A   25326.28671477  .00015903  00000+0  29634-3 0  9999
2 65077  51.6321 243.7129 0003927 154.7163 205.4019 15.48986583  2146
DRAGON CRS-33           
1 65304U 25186A   25326.28671477  .00015903  00000+0  29634-3 0  9994
2 65304  51.6321 243.7129 0003927 154.7163 205.4019 15.48986583   114
