CCSDS_OMM_VERS = 2.0
CREATION_DATE  = 
ORIGINATOR     = 

OBJECT_NAME    = ISS (ZARYA)
OBJECT_ID      = 1998-067A
CENTER_NAME    = EARTH
REF_FRAME      = TEME
TIME_SYSTEM    = UTC
MEAN_ELEMENT_THEORY = SGP/SGP4

EPOCH          = 2025-11-22T06:52:52.156128
MEAN_MOTION    = 15.48986583
ECCENTRICITY   = .00039276
INCLINATION    = 51.6321
RA_OF_ASC_NODE = 243.7129
ARG_OF_PERICENTER = 154.7163
MEAN_ANOMALY   = 205.4019

EPHEMERIS_TYPE = 0
CLASSIFICATION_TYPE = U
NORAD_CAT_ID   = 25544
ELEMENT_SET_NO = 999
REV_AT_EPOCH   = 53968
BSTAR          = .29633503E-3
MEAN_MOTION_DOT = .15903E-3
MEAN_MOTION_DDOT = 0

CCSDS_OMM_VERS = 2.0
CREATION_DATE  = 
ORIGINATOR     = 

OBJECT_NAME    = ISS (NAUKA)
OBJECT_ID      = 2021-066A
CENTER_NAME    = EARTH
REF_FRAME      = TEME
TIME_SYSTEM    = UTC
MEAN_ELEMENT_THEORY = SGP/SGP4

EPOCH          = 2025-11-22T06:52:52.156128
MEAN_MOTION    = 15.48986583
ECCENTRICITY   = .00039276
INCLINATION    = 51.6321
RA_OF_ASC_NODE = 243.7129
ARG_OF_PERICENTER = 154.7163
MEAN_ANOMALY   = 205.4019

EPHEMERIS_TYPE = 0
CLASSIFICATION_TYPE = U
NORAD_CAT_ID   = 49044
ELEMENT_SET_NO = 999
REV_AT_EPOCH   = 23044
BSTAR          = .29633503E-3
MEAN_MOTION_DOT = .15903E-3
MEAN_MOTION_DDOT = 0

CCSDS_OMM_VERS = 2.0
CREATION_DATE  = 
ORIGINATOR     = 

OBJECT_NAME    = FREGAT DEB
OBJECT_ID      = 2011-037PF
CENTER_NAME    = EARTH
REF_FRAME      = TEME
TIME_SYSTEM    = UTC
MEAN_ELEMENT_THEORY = SGP/SGP4

EPOCH          = 2025-11-22T00:07:04.071072
MEAN_MOTION    = 12.34191491
ECCENTRICITY   = .08746148
INCLINATION    = 51.6176
RA_OF_ASC_NODE = 260.7532
ARG_OF_PERICENTER = 179.0797
MEAN_ANOMALY   = 181.1911

EPHEMERIS_TYPE = 0
CLASSIFICATION_TYPE = U
NORAD_CAT_ID   = 49271
ELEMENT_SET_NO = 999
REV_AT_EPOCH   = 19937
BSTAR          = .1913836E-1
MEAN_MOTION_DOT = .8756E-4
MEAN_MOTION_DDOT = 0

CCSDS_OMM_VERS = 2.0
CREATION_DATE  = 
ORIGINATOR     = 

OBJECT_NAME    = CSS (WENTIAN)
OBJECT_ID      = 2022-085A
CENTER_NAME    = EARTH
REF_FRAME      = TEME
TIME_SYSTEM    = UTC
MEAN_ELEMENT_THEORY = SGP/SGP4

EPOCH          = 2025-11-22T12:44:54.207744
MEAN_MOTION    = 15.59440627
ECCENTRICITY   = .00077834
INCLINATION    = 41.4655
RA_OF_ASC_NODE = 139.2979
ARG_OF_PERICENTER = 217.8550
MEAN_ANOMALY   = 142.1741

EPHEMERIS_TYPE = 0
CLASSIFICATION_TYPE = U
NORAD_CAT_ID   = 53239
ELEMENT_SET_NO = 999
REV_AT_EPOCH   = 17384
BSTAR          = .23181821E-3
MEAN_MOTION_DOT = .18605E-3
MEAN_MOTION_DDOT = 0

CCSDS_OMM_VERS = 2.0
CREATION_DATE  = 
ORIGINATOR     = 

OBJECT_NAME    = CSS (MENGTIAN)
OBJECT_ID      = 2022-143A
CENTER_NAME    = EARTH
REF_FRAME      = TEME
TIME_SYSTEM    = UTC
MEAN_ELEMENT_THEORY = SGP/SGP4

EPOCH          = 2025-11-22T12:44:54.207744
MEAN_MOTION    = 15.59440627
ECCENTRICITY   = .00077834
INCLINATION    = 41.4655
RA_OF_ASC_NODE = 139.2979
ARG_OF_PERICENTER = 217.8550
MEAN_ANOMALY   = 142.1741

EPHEMERIS_TYPE = 0
CLASSIFICATION_TYPE = U
NORAD_CAT_ID   = 54216
ELEMENT_SET_NO = 999
REV_AT_EPOCH   = 15864
BSTAR          = .23181821E-3
MEAN_MOTION_DOT = .18605E-3
MEAN_MOTION_DDOT = 0

CCSDS_OMM_VERS = 2.0
CREATION_DATE  = 
ORIGINATOR     = 

OBJECT_NAME    = SOYUZ-MS 27
OBJECT_ID      = 2025-072A
CENTER_NAME    = EARTH
REF_FRAME      = TEME
TIME_SYSTEM    = UTC
MEAN_ELEMENT_THEORY = SGP/SGP4

EPOCH          = 2025-11-22T06:52:52.156128
MEAN_MOTION    = 15.48986583
ECCENTRICITY   = .00039276
INCLINATION    = 51.6321
RA_OF_ASC_NODE = 243.7129
ARG_OF_PERICENTER = 154.7163
MEAN_ANOMALY   = 205.4019

EPHEMERIS_TYPE = 0
CLASSIFICATION_TYPE = U
NORAD_CAT_ID   = 63520
ELEMENT_SET_NO = 999
REV_AT_EPOCH   = 2020
BSTAR          = .29633503E-3
MEAN_MOTION_DOT = .15903E-3
MEAN_MOTION_DDOT = 0

CCSDS_OMM_VERS = 2.0
CREATION_DATE  = 
ORIGINATOR     = 

OBJECT_NAME    = SHENZHOU-20 (SZ-20)
OBJECT_ID      = 2025-082A
CENTER_NAME    = EARTH
REF_FRAME      = TEME
TIME_SYSTEM    = UTC
MEAN_ELEMENT_THEORY = SGP/SGP4

EPOCH          = 2025-11-22T12:44:54.207744
MEAN_MOTION    = 15.59440627
ECCENTRICITY   = .00077834
INCLINATION    = 41.4655
RA_OF_ASC_NODE = 139.2979
ARG_OF_PERICENTER = 217.8550
MEAN_ANOMALY   = 142.1741

EPHEMERIS_TYPE = 0
CLASSIFICATION_TYPE = U
NORAD_CAT_ID   = 63632
ELEMENT_SET_NO = 999
REV_AT_EPOCH   = 25530
BSTAR          = .23181821E-3
MEAN_MOTION_DOT = .18605E-3
MEAN_MOTION_DDOT = 0

CCSDS_OMM_VERS = 2.0
CREATION_DATE  = 
ORIGINATOR     = 

OBJECT_NAME    = PROGRESS-MS 31
OBJECT_ID      = 2025-146A
CENTER_NAME    = EARTH
REF_FRAME      = TEME
TIME_SYSTEM    = UTC
MEAN_ELEMENT_THEORY = SGP/SGP4

EPOCH          = 2025-11-22T06:52:52.156128
MEAN_MOTION    = 15.48986583
ECCENTRICITY   = .00039276
INCLINATION    = 51.6321
RA_OF_ASC_NODE = 243.7129
ARG_OF_PERICENTER = 154.7163
MEAN_ANOMALY   = 205.4019

EPHEMERIS_TYPE = 0
CLASSIFICATION_TYPE = U
NORAD_CAT_ID   = 64751
ELEMENT_SET_NO = 999
REV_AT_EPOCH   = 675
BSTAR          = .29633503E-3
MEAN_MOTION_DOT = .15903E-3
MEAN_MOTION_DDOT = 0

CCSDS_OMM_VERS = 2.0
CREATION_DATE  = 
ORIGINATOR     = 

OBJECT_NAME    = TIANZHOU-9
OBJECT_ID      = 2025-149A
CENTER_NAME    = EARTH
REF_FRAME      = TEME
TIME_SYSTEM    = UTC
MEAN_ELEMENT_THEORY = SGP/SGP4

EPOCH          = 2025-11-22T12:44:54.207744
MEAN_MOTION    = 15.59440627
ECCENTRICITY   = .00077834
INCLINATION    = 41.4655
RA_OF_ASC_NODE = 139.2979
ARG_OF_PERICENTER = 217.8550
MEAN_ANOMALY   = 142.1741

EPHEMERIS_TYPE = 0
CLASSIFICATION_TYPE = U
NORAD_CAT_ID   = 64786
ELEMENT_SET_NO = 999
REV_AT_EPOCH   = 25530
BSTAR          = .23181821E-3
MEAN_MOTION_DOT = .18605E-3
MEAN_MOTION_DDOT = 0

CCSDS_OMM_VERS = 2.0
CREATION_DATE  = 
ORIGINATOR     = 

OBJECT_NAME    = CREW DRAGON 11
OBJECT_ID      = 2025-166A
CENTER_NAME    = EARTH
REF_FRAME      = TEME
TIME_SYSTEM    = UTC
MEAN_ELEMENT_THEORY = SGP/SGP4

EPOCH          = 2025-11-22T06:52:52.156128
MEAN_MOTION    = 15.48986583
ECCENTRICITY   = .00039276
INCLINATION    = 51.6321
RA_OF_ASC_NODE = 243.7129
ARG_OF_PERICENTER = 154.7163
MEAN_ANOMALY   = 205.4019

EPHEMERIS_TYPE = 0
CLASSIFICATION_TYPE = U
NORAD_CAT_ID   = 65077
ELEMENT_SET_NO = 999
REV_AT_EPOCH   = 214
BSTAR          = .29633503E-3
MEAN_MOTION_DOT = .15903E-3
MEAN_MOTION_DDOT = 0

CCSDS_OMM_VERS = 2.0
CREATION_DATE  = 
ORIGINATOR     = 

OBJECT_NAME    = DRAGON CRS-33
OBJECT_ID      = 2025-186A
CENTER_NAME    = EARTH
REF_FRAME      = TEME
TIME_SYSTEM    = UTC
MEAN_ELEMENT_THEORY = SGP/SGP4

EPOCH          = 2025-11-22T06:52:52.156128
MEAN_MOTION    = 15.48986583
ECCENTRICITY   = .00039276
INCLINATION    = 51.6321
RA_OF_ASC_NODE = 243.7129
ARG_OF_PERICENTER = 154.7163
MEAN_ANOMALY   = 205.4019

EPHEMERIS_TYPE = 0
CLASSIFICATION_TYPE = U
NORAD_CAT_ID   = 65304
ELEMENT_SET_NO = 999
REV_AT_EPOCH   = 11
BSTAR          = .29633503E-3
MEAN_MOTION_DOT = .15903E-3
MEAN_MOTION_DDOT = 0

